IRIDIUM 150             
1 43257U 18030J   24287.27822673  .00001298  00000+0  45638-3 0  9991
2 43257  86.4028 186.2150 0002376  87.5027 272.6441 14.34214584342473
IRIDIUM 143             
1 43258U 18030K   24287.32897374  .00001394  00000+0  49069-3 0  9997
2 43258  86.4046 186.2609 0002957  80.5724 279.5806 14.34211393342426
IRIDIUM 161             
1 43478U 18047C   24287.25504789  .00001588  00000+0  46587-3 0  9993
2 43478  86.4524 344.2137 0002074  96.7835 263.3602 14.43290359336871
IRIDIUM 152             
1 43479U 18047D   24287.51099495  .00000914  00000+0  31940-3 0  9995
2 43479  86.3998 343.9666 0001950  92.2293 267.9126 14.34213984334812
IRIDIUM 147             
1 43480U 18047E   24287.30803134  .00000278  00000+0  92374-4 0  9999
2 43480  86.4002 344.0453 0001873  92.1385 268.0025 14.34218272334783
IRIDIUM 110             
1 43481U 18047F   24287.24460020  .00000246  00000+0  80660-4 0  9996
2 43481  86.4002 344.1476 0001713 100.7846 259.3543 14.34217970334761
IRIDIUM 162             
1 43482U 18047G   24287.31805746  .00001574  00000+0  46202-3 0  9991
2 43482  86.4525 344.0860 0001809  94.6700 265.4708 14.43275799336872
IRIDIUM 160             
1 43569U 18061A   24287.46950312  .00000798  00000+0  27789-3 0  9995
2 43569  86.3939 312.4297 0002007  89.0841 271.0584 14.34217259325694
